NORAD_CAT_ID,OBJECT_NAME,OBJECT_TYPE,EPOCH,MEAN_MOTION,ECCENTRICITY,INCLINATION,RA_OF_ASC_NODE,ARG_OF_PERICENTER,MEAN_ANOMALY,BSTAR,MEAN_MOTION_DOT,MEAN_MOTION_DDOT,TLE_LINE0,TLE_LINE1,TLE_LINE2,SEMIMAJOR_AXIS,PERIOD,APOGEE,PERIGEE,DECAYED
53293.0,STARLINK-4148,PAYLOAD,2024-01-01 16:35:50,15.08853703,0.0001175,53.2167,156.4644,84.5246,275.588,2.1764e-05,5.9e-07,0.0,0 STARLINK-4148,1 53293U 22086BD  24001.69155870  .00000059  00000-0  21764-4 0  9996,2 53293  53.2167 156.4644 0001175  84.5246 275.5880 15.08853703 80857,6917.839,95.437,540.516,538.891,0.0
53293.0,STARLINK-4148,PAYLOAD,2024-01-02 14:51:14,15.088441,0.0001274,53.2165,152.3017,81.9163,278.1974,4.9989e-05,5.08e-06,0.0,0 STARLINK-4148,1 53293U 22086BD  24002.61892046  .00000508  00000-0  49989-4 0  9990,2 53293  53.2165 152.3017 0001274  81.9163 278.1974 15.08844100 80992,6917.868,95.437,540.614,538.852,0.0
53293.0,STARLINK-4148,PAYLOAD,2024-01-02 19:37:23,15.08847065,0.0001234,53.2162,151.4089,84.3589,275.7543,6.4869e-05,7.45e-06,0.0,0 STARLINK-4148,1 53293U 22086BD  24002.81763689  .00000745  00000-0  64869-4 0  9999,2 53293  53.2162 151.4089 0001234  84.3589 275.7543 15.08847065 80867,6917.859,95.437,540.577,538.87,0.0
53293.0,STARLINK-4148,PAYLOAD,2024-01-03 09:55:52,15.08851649,0.0001226,53.2165,148.7288,87.9309,272.1824,-0.00020131,-3.491e-05,0.0,0 STARLINK-4148,1 53293U 22086BD  24003.41380255 -.00003491  00000-0 -20131-3 0  9996,2 53293  53.2165 148.7288 0001226  87.9309 272.1824 15.08851649 80956,6917.845,95.437,540.558,538.862,0.0
53293.0,STARLINK-4148,PAYLOAD,2024-01-03 14:42:02,15.08835679,0.0001342,53.217,147.8424,96.4644,263.6501,-1.4951e-06,-3.12e-06,0.0,0 STARLINK-4148,1 53293U 22086BD  24003.61252535 -.00000312  00000-0 -14951-5 0  9991,2 53293  53.2170 147.8424 0001342  96.4644 263.6501 15.08835679 81144,6917.894,95.438,540.687,538.83,0.0
53293.0,STARLINK-4148,PAYLOAD,2024-01-03 16:17:25,15.08836634,0.0001353,53.2169,147.5448,97.0298,263.0848,3.1803e-06,-2.37e-06,0.0,0 STARLINK-4148,1 53293U 22086BD  24003.67876453 -.00000237  00000-0  31803-5 0  9998,2 53293  53.2169 147.5448 0001353  97.0298 263.0848 15.08836634 81150,6917.891,95.438,540.692,538.82,0.0
53293.0,STARLINK-4148,PAYLOAD,2024-01-04 14:32:48,15.08838303,0.0001357,53.2171,143.3801,101.4217,258.6928,6.1771e-05,6.95e-06,0.0,0 STARLINK-4148,1 53293U 22086BD  24004.60612249  .00000695  00000-0  61771-4 0  9996,2 53293  53.2171 143.3801 0001357 101.4217 258.6928 15.08838303 81294,6917.886,95.438,540.689,538.812,0.0
53293.0,STARLINK-4148,PAYLOAD,2024-01-04 16:08:12,15.08839439,0.0001354,53.2172,143.0827,100.0038,260.1107,7.0426e-05,8.33e-06,0.0,0 STARLINK-4148,1 53293U 22086BD  24004.67236163  .00000833  00000-0  70426-4 0  9991,2 53293  53.2172 143.0827 0001354 100.0038 260.1107 15.08839439 81303,6917.882,95.438,540.684,538.81,0.0
53293.0,STARLINK-4148,PAYLOAD,2024-01-05 12:48:13,15.08831774,0.000134,53.2171,139.2175,92.7771,267.3375,3.9519e-05,3.41e-06,0.0,0 STARLINK-4148,1 53293U 22086BD  24005.53349080  .00000341  00000-0  39519-4 0  9992,2 53293  53.2171 139.2175 0001340  92.7771 267.3375 15.08831774 81277,6917.906,95.438,540.698,538.844,0.0
53293.0,STARLINK-4148,PAYLOAD,2024-01-05 14:23:36,15.08832129,0.0001342,53.2171,138.9201,92.3381,267.7765,4.1717e-05,3.76e-06,0.0,0 STARLINK-4148,1 53293U 22086BD  24005.59973091  .00000376  00000-0  41717-4 0  9994,2 53293  53.2171 138.9201 0001342  92.3381 267.7765 15.08832129 81449,6917.904,95.438,540.698,538.841,0.0
53293.0,STARLINK-4148,PAYLOAD,2024-01-06 12:39:00,15.08841834,0.0001365,53.2179,134.7555,91.3588,268.756,3.3113e-05,2.39e-06,0.0,0 STARLINK-4148,1 53293U 22086BD  24006.52708824  .00000239  00000-0  33113-4 0  9997,2 53293  53.2179 134.7555 0001365  91.3588 268.7560 15.08841834 81421,6917.875,95.437,540.684,538.795,0.0
53293.0,STARLINK-4148,PAYLOAD,2024-01-06 17:25:09,15.08851678,0.0001589,53.2176,133.8633,86.7726,273.3448,-7.6527e-06,-4.1e-06,0.0,0 STARLINK-4148,1 53293U 22086BD  24006.72580306 -.00000410  00000-0 -76527-5 0  9992,2 53293  53.2176 133.8633 0001589  86.7726 273.3448 15.08851678 81452,6917.845,95.437,540.809,538.61,0.0
53293.0,STARLINK-4148,PAYLOAD,2024-01-07 12:29:47,15.08837553,0.0001412,53.2174,130.2983,80.6208,279.4944,8.2069e-05,1.018e-05,0.0,0 STARLINK-4148,1 53293U 22086BD  24007.52069158  .00001018  00000-0  82069-4 0  9998,2 53293  53.2174 130.2983 0001412  80.6208 279.4944 15.08837553 81579,6917.888,95.438,540.73,538.776,0.0
53293.0,STARLINK-4148,PAYLOAD,2024-01-07 14:05:10,15.08838205,0.0001562,53.2178,130.0016,70.1789,289.9372,0.00010528,1.388e-05,0.0,0 STARLINK-4148,1 53293U 22086BD  24007.58693190  .00001388  00000-0  10528-3 0  9993,2 53293  53.2178 130.0016 0001562  70.1789 289.9372 15.08838205 81747,6917.886,95.438,540.831,538.67,0.0
53293.0,STARLINK-4148,PAYLOAD,2024-01-07 15:40:33,15.08838411,0.0001617,53.218,129.7042,71.3857,288.7311,0.00014128,1.961e-05,0.0,0 STARLINK-4148,1 53293U 22086BD  24007.65317115  .00001961  00000-0  14128-3 0  9998,2 53293  53.2180 129.7042 0001617  71.3857 288.7311 15.08838411 81754,6917.885,95.438,540.869,538.632,0.0
53293.0,STARLINK-4148,PAYLOAD,2024-01-08 13:55:57,15.08846838,0.0001793,53.2179,125.5412,66.2914,293.8266,5.7334e-05,6.25e-06,0.0,0 STARLINK-4148,1 53293U 22086BD  24008.58052781  .00000625  00000-0  57334-4 0  9999,2 53293  53.2179 125.5412 0001793  66.2914 293.8266 15.08846838 81892,6917.859,95.437,540.965,538.484,0.0
53293.0,STARLINK-4148,PAYLOAD,2024-01-09 13:46:44,15.08844112,0.0001701,53.2172,121.0802,69.9912,290.1263,5.9875e-05,6.65e-06,0.0,0 STARLINK-4148,1 53293U 22086BD  24009.57412726  .00000665  00000-0  59875-4 0  9994,2 53293  53.2172 121.0802 0001701  69.9912 290.1263 15.08844112 82044,6917.868,95.437,540.91,538.556,0.0
53293.0,STARLINK-4148,PAYLOAD,2024-01-09 16:57:30,15.08850305,0.0001465,53.2168,120.4831,91.3855,268.7305,8.2064e-05,1.019e-05,0.0,0 STARLINK-4148,1 53293U 22086BD  24009.70660057  .00001019  00000-0  82064-4 0  9991,2 53293  53.2168 120.4831 0001465  91.3855 268.7305 15.08850305 81909,6917.849,95.437,540.727,538.7,0.0
53293.0,STARLINK-4148,PAYLOAD,2024-01-10 10:26:45,15.08841753,0.0001712,53.2156,117.2108,108.0646,252.0533,-3.2894e-06,-3.4e-06,0.0,0 STARLINK-4148,1 53293U 22086BD  24010.43524715 -.00000340  00000-0 -32894-5 0  9998,2 53293  53.2156 117.2108 0001712 108.0646 252.0533 15.08841753 82015,6917.875,95.437,540.924,538.556,0.0
53293.0,STARLINK-4148,PAYLOAD,2024-01-11 11:52:55,15.08847946,0.000138,53.2164,112.451,108.8466,251.2676,5.8561e-05,6.44e-06,0.0,0 STARLINK-4148,1 53293U 22086BD  24011.49508271  .00000644  00000-0  58561-4 0  9997,2 53293  53.2164 112.4510 0001380 108.8466 251.2676 15.08847946 82173,6917.856,95.437,540.676,538.766,0.0
53293.0,STARLINK-4148,PAYLOAD,2024-01-11 13:28:18,15.08851602,0.000139,53.2168,112.1533,103.7631,256.3516,8.9098e-05,1.131e-05,0.0,0 STARLINK-4148,1 53293U 22086BD  24011.56132011  .00001131  00000-0  89098-4 0  9991,2 53293  53.2168 112.1533 0001390 103.7631 256.3516 15.08851602 82340,6917.845,95.437,540.672,538.748,0.0
53293.0,STARLINK-4148,PAYLOAD,2024-01-12 11:43:42,15.08836365,0.0001266,53.2158,107.9929,100.8552,259.2583,1.5205e-05,-4.6e-07,0.0,0 STARLINK-4148,1 53293U 22086BD  24012.48869166 -.00000046  00000-0  15205-4 0  9995,2 53293  53.2158 107.9929 0001266 100.8552 259.2583 15.08836365 82325,6917.891,95.438,540.632,538.881,0.0
53293.0,STARLINK-4148,PAYLOAD,2024-01-13 13:09:53,15.08843068,0.0001212,53.216,103.2353,88.3141,271.799,5.8929e-05,6.5e-06,0.0,0 STARLINK-4148,1 53293U 22086BD  24013.54853127  .00000650  00000-0  58929-4 0  9993,2 53293  53.2160 103.2353 0001212  88.3141 271.7990 15.08843068 82647,6917.871,95.437,540.574,538.898,0.0
53293.0,STARLINK-4148,PAYLOAD,2024-01-13 14:45:16,15.08846077,0.0001237,53.2164,102.9386,75.1996,284.9133,0.00011507,1.544e-05,0.0,0 STARLINK-4148,1 53293U 22086BD  24013.61477033  .00001544  00000-0  11507-3 0  9992,2 53293  53.2164 102.9386 0001237  75.1996 284.9133 15.08846077 82493,6917.862,95.437,540.583,538.871,0.0
53293.0,STARLINK-4148,PAYLOAD,2024-01-14 11:25:17,15.08836873,0.0001598,53.2163,99.0722,70.8537,289.2628,8.1738e-05,1.013e-05,0.0,0 STARLINK-4148,1 53293U 22086BD  24014.47589873  .00001013  00000-0  81738-4 0  9998,2 53293  53.2163  99.0722 0001598  70.8537 289.2628 15.08836873 82620,6917.89,95.438,540.86,538.649,0.0
53293.0,STARLINK-4148,PAYLOAD,2024-01-14 14:36:03,15.08851146,0.0001262,53.2163,98.4783,89.6016,270.5121,0.00029359,4.389e-05,0.0,0 STARLINK-4148,1 53293U 22086BD  24014.60837152  .00004389  00000-0  29359-3 0  9998,2 53293  53.2163  98.4783 0001262  89.6016 270.5121 15.08851146 82809,6917.846,95.437,540.584,538.838,0.0
53293.0,STARLINK-4148,PAYLOAD,2024-01-15 00:08:22,15.08844713,0.000146,53.2171,96.6973,95.6204,264.4955,0.00037657,5.711e-05,0.0,0 STARLINK-4148,1 53293U 22086BD  24015.00581262  .00005711  00000-0  37657-3 0  9991,2 53293  53.2171  96.6973 0001460  95.6204 264.4955 15.08844713 82703,6917.866,95.437,540.741,538.721,0.0
53293.0,STARLINK-4148,PAYLOAD,2024-01-15 12:51:26,15.08857338,0.000144,53.2174,94.3157,81.5662,278.5494,0.000264,3.918e-05,0.0,0 STARLINK-4148,1 53293U 22086BD  24015.53572710  .00003918  00000-0  26400-3 0  9998,2 53293  53.2174  94.3157 0001440  81.5662 278.5494 15.08857338 82942,6917.827,95.436,540.689,538.696,0.0
53293.0,STARLINK-4148,PAYLOAD,2024-01-16 04:45:18,15.08845292,0.0001562,53.217,91.3424,88.723,271.3941,-3.9215e-06,-3.5e-06,0.0,0 STARLINK-4148,1 53293U 22086BD  24016.19813440 -.00000350  00000-0 -39215-5 0  9998,2 53293  53.2170  91.3424 0001562  88.7230 271.3941 15.08845292 82884,6917.864,95.437,540.81,538.649,0.0
53293.0,STARLINK-4148,PAYLOAD,2024-01-16 09:31:28,15.08845117,0.0001716,53.2173,90.4513,81.118,279.0006,3.3836e-05,2.51e-06,0.0,0 STARLINK-4148,1 53293U 22086BD  24016.39685454  .00000251  00000-0  33836-4 0  9992,2 53293  53.2173  90.4513 0001716  81.1180 279.0006 15.08845117 83073,6917.865,95.437,540.917,538.543,0.0
